STARLINK-2703           
1 48452U 21040AA  26068.56243227  .00000180  00000+0  18217-4 0  9994
2 48452  53.1622 178.7354 0001645 114.5451 245.5721 15.30211430266668
NUSHSAT1                
1 63211U 25052B   26068.64700493  .00023034  00000+0  74857-3 0  9997
2 63211  97.4095 325.7239 0005501  84.7512 275.4357 15.31903202 54882
